0 IRIDIUM 33 DEB
1 35080U 97051PF  13283.90264068  .00005075  00000-0  29371-2 0  5841
2 35080 086.2503 146.4169 0198309 272.1752 143.9040 13.99396678230679
0 IRIDIUM 33 DEB
1 35080U 97051PF  13285.34648442  .00004298  00000-0  24866-2 0  5854
2 35080 086.2503 145.8228 0198044 267.6848 217.8175 13.99407673230879
0 IRIDIUM 33 DEB
1 35080U 97051PF  13286.41775704  .00004287  00000-0  24800-2 0  5862
2 35080 086.2503 145.3825 0197990 264.3566 214.7975 13.99415510231028
0 IRIDIUM 33 DEB
1 35080U 97051PF  13287.41889043  .00004860  00000-0  28125-2 0  5877
2 35080 086.2500 144.9710 0197912 261.2417 218.4544 13.99422841231161
0 IRIDIUM 33 DEB
1 35080U 97051PF  13287.90673964  .00007456  00000-0  43175-2 0  5881
2 35080 086.2496 144.7710 0197980 259.7122 156.2372 13.99429287231230
0 IRIDIUM 33 DEB
1 35080U 97051PF  13289.35083569  .00005993  00000-0  34681-2 0  5895
2 35080 086.2489 144.1776 0197947 255.2145 231.6169 13.99445373231435
0 IRIDIUM 33 DEB
1 35080U 97051PF  13290.35178303  .00006224  00000-0  36017-2 0  5903
2 35080 086.2485 143.7660 0197879 252.1042 234.4405 13.99453856231578
0 IRIDIUM 33 DEB
1 35080U 97051PF  13293.35426076  .00005772  00000-0  33395-2 0  5913
2 35080 086.2478 142.5314 0197570 242.7479 241.2987 13.99480452231999
0 IRIDIUM 33 DEB
1 35080U 97051PF  13294.55060943  .00006705  00000-0  38809-2 0  5926
2 35080 086.2478 142.0395 0197379 239.0074 148.7417 13.99490741232161
0 IRIDIUM 33 DEB
1 35080U 97051PF  13295.84341613  .00006682  00000-0  38672-2 0  5938
2 35080 086.2485 141.5081 0197307 234.9887 182.1876 13.99502240232341
